0 NIMBUS 6
1 07924U 75052A   13281.55388133 -.00000012  00000-0  65388-4 0  2218
2 07924 100.4027 109.9955 0007810 194.4237 241.1990 13.40656198875337
0 NIMBUS 6
1 07924U 75052A   13283.71353394 -.00000013  00000-0  62283-4 0  2222
2 07924 100.4023 112.2130 0007855 189.2261 224.5198 13.40656272875623
0 NIMBUS 6
1 07924U 75052A   13286.18777245 -.00000029  00000-0  33453-4 0  2236
2 07924 100.4018 114.7534 0007925 183.3254 286.1000 13.40656484875954
0 NIMBUS 6
1 07924U 75052A   13288.49452384 -.00000030  00000-0  30882-4 0  2242
2 07924 100.4016 117.1218 0007987 177.9199 259.2321 13.40656727876265
0 NIMBUS 6
1 07924U 75052A   13290.49941869 -.00000047  00000-0  87321-6 0  2257
2 07924 100.4017 119.1802 0008027 173.2334 215.4960 13.40656727876536
0 NIMBUS 6
1 07924U 75052A   13292.66653979 -.00000036  00000-0  21685-4 0  2268
2 07924 100.4018 121.4051 0008079 168.2541 234.6306 13.40656791876820
0 NIMBUS 6
1 07924U 75052A   13294.75968454 -.00000032  00000-0  27773-4 0  2278
2 07924 100.4018 123.5540 0008128 163.4384 256.7409 13.40656751877100
